{
  "norad_id": 44716,
  "name": "STARLINK-1010",
  "line1": "1 44716U 19074D   24001.50000000  .00001280  00000-0  94000-4 0  9994",
  "line2": "2 44716  53.0500 171.5000 0001500  86.0000 274.0000 15.06400000230000",
  "epoch": "24001.50000000"
}
